      2.10          N: GNSS NAV DATA                        RINEX VERSION / TYPE
fic2rin                                 01/18/2019 03:40:46 PGM / RUN BY / DATE
                                                            END OF HEADER
16 19  1 17 16  0  0.0-1.332024112344e-05-2.387423592154e-12 0.000000000000e+00
    9.000000000000e+00 8.321875000000e+01 4.029453557200e-09-2.463540491550e+00
    4.272907972336e-06 1.043307839427e-02 3.615394234657e-06 5.153762168884e+03
    4.032000000000e+05 6.146728992462e-08-2.615608654919e+00-1.210719347000e-07
    9.848798645196e-01 3.245312500000e+02 5.284040645503e-01-7.952831267344e-09
    1.964367538078e-10 1.000000000000e+00 2.036000000000e+03 0.000000000000e+00
    2.400000000000e+00 0.000000000000e+00-1.071020960808e-08 9.000000000000e+00
    3.960060000000e+05 4.000000000000e+00
17 19  1 17 16  0  0.0-3.417488187551e-06 5.343281372916e-12 0.000000000000e+00
    1.700000000000e+01-1.003437500000e+02 3.961236429969e-09 2.881681422947e+00
   -5.058944225311e-06 1.302631094586e-02 3.548339009285e-06 5.153681249619e+03
    4.032000000000e+05 1.359730958939e-07-1.600794017919e+00-5.215406417847e-08
    9.835172601959e-01 3.205000000000e+02-1.733065008314e+00-7.870684988479e-09
   -2.446530479243e-10 1.000000000000e+00 2.036000000000e+03 0.000000000000e+00
    2.400000000000e+00 0.000000000000e+00-1.117587089539e-08 1.700000000000e+01
    3.960060000000e+05 4.000000000000e+00
26 19  1 17 16  0  0.0 9.900098666549e-05 1.057287590811e-11 0.000000000000e+00
    1.000000000000e+01 9.546875000000e+01 4.656979696183e-09-1.555353408061e+00
    4.943460226059e-06 3.531975555234e-03 4.254281520844e-06 5.153786479950e+03
    4.032000000000e+05-1.490116119385e-08-2.723370585831e+00-1.490116119385e-08
    9.534220860625e-01 2.946875000000e+02 9.200721020676e-02-8.322132364503e-09
    1.517920370333e-10 1.000000000000e+00 2.036000000000e+03 0.000000000000e+00
    2.400000000000e+00 0.000000000000e+00 7.450580596924e-09 1.000000000000e+01
    3.960060000000e+05 4.000000000000e+00
25 19  1 17 16  0  0.0-7.072528824210e-04-5.456968210638e-12 0.000000000000e+00
    5.500000000000e+01 9.946875000000e+01 4.399826127562e-09-8.784640684002e-01
    5.153939127922e-06 8.014170452952e-03 4.276633262634e-06 5.153767892838e+03
    4.032000000000e+05 5.215406417847e-08-2.697190300437e+00 2.048909664154e-07
    9.720362615548e-01 3.020000000000e+02 8.495059926944e-01-8.273201754918e-09
    9.286101089098e-11 1.000000000000e+00 2.036000000000e+03 0.000000000000e+00
    2.400000000000e+00 0.000000000000e+00 5.587935447693e-09 5.500000000000e+01
    3.960060000000e+05 4.000000000000e+00
24 19  1 17 16  0  0.0-6.093503907323e-05-5.684341886081e-13 0.000000000000e+00
    7.200000000000e+01 6.362500000000e+01 4.824129515787e-09 1.056483636316e+00
    3.529712557793e-06 8.068947587162e-03 1.170858740807e-05 5.153741125107e+03
    4.032000000000e+05-7.078051567078e-08 2.487966733778e+00 1.005828380585e-07
    9.396578146225e-01 1.405312500000e+02 5.829060284901e-01-8.175340535748e-09
   -4.525188492264e-10 1.000000000000e+00 2.036000000000e+03 0.000000000000e+00
    2.400000000000e+00 0.000000000000e+00 2.793967723846e-09 7.200000000000e+01
    3.960060000000e+05 4.000000000000e+00
30 19  1 17 16  0  0.0-3.742007538676e-05-6.139089236967e-12 0.000000000000e+00
    6.800000000000e+01 8.600000000000e+01 4.690909680931e-09 1.104759292173e-01
    4.267320036888e-06 3.610475803725e-03 1.091323792934e-05 5.153646205902e+03
    4.032000000000e+05 2.607703208923e-08 2.581803265989e+00 1.117587089539e-08
    9.421140292080e-01 1.568750000000e+02-3.016020635720e+00-8.124981295227e-09
   -3.342996392075e-10 1.000000000000e+00 2.036000000000e+03 0.000000000000e+00
    2.400000000000e+00 0.000000000000e+00 3.725290298462e-09 6.800000000000e+01
    3.960060000000e+05 4.000000000000e+00
15 19  1 17 16  0  0.0-3.318497911096e-04 1.591615728103e-12 0.000000000000e+00
    6.300000000000e+01-2.434375000000e+01 5.784883820774e-09 2.016765414009e+00
   -1.354143023491e-06 1.118828181643e-02 6.645917892456e-06 5.153615362167e+03
    4.032000000000e+05-2.495944499969e-07 1.398052287244e+00-1.452863216400e-07
    9.276063759460e-01 2.372812500000e+02 7.577166212301e-01-8.538569951426e-09
   -3.225134339791e-10 1.000000000000e+00 2.036000000000e+03 0.000000000000e+00
    2.400000000000e+00 0.000000000000e+00-1.071020960808e-08 6.300000000000e+01
    3.960060000000e+05 4.000000000000e+00
11 19  1 17 16  0  0.0-6.739995442331e-04 5.343281372916e-12 0.000000000000e+00
    5.400000000000e+01-1.070000000000e+02 5.657735667400e-09 4.780088335009e-02
   -5.746260285378e-06 1.659041398671e-02 7.767230272293e-06 5.153684278488e+03
    4.032000000000e+05-2.123415470123e-07-1.042562806308e+00-1.993030309677e-07
    9.080437599417e-01 2.045000000000e+02 1.855410351163e+00-8.945729768409e-09
   -3.785871982478e-11 1.000000000000e+00 2.036000000000e+03 0.000000000000e+00
    2.400000000000e+00 0.000000000000e+00-1.210719347000e-08 5.400000000000e+01
    3.960060000000e+05 4.000000000000e+00
 9 19  1 17 16  0  0.0 4.705698229373e-04-4.661160346586e-12 0.000000000000e+00
    5.000000000000e+01-1.437500000000e+01 5.147357265234e-09-2.982694465105e+00
   -6.556510925293e-07 1.485302345827e-03 7.234513759613e-06 5.153744567871e+03
    4.032000000000e+05 9.685754776001e-08 1.474793250944e+00 6.519258022308e-08
    9.520696797408e-01 2.366875000000e+02 1.700918840588e+00-8.235700192827e-09
   -3.407284784231e-10 1.000000000000e+00 2.036000000000e+03 0.000000000000e+00
    2.400000000000e+00 0.000000000000e+00 1.396983861923e-09 5.000000000000e+01
    3.960060000000e+05 4.000000000000e+00
19 19  1 17 16  0  0.0-3.623631782830e-04 3.979039320257e-12 0.000000000000e+00
    4.400000000000e+01-9.787500000000e+01 4.114099940205e-09-6.147312597844e-01
   -4.911795258522e-06 9.372633998282e-03 4.425644874573e-06 5.153618078232e+03
    4.032000000000e+05-4.470348358154e-08-1.554257436649e+00 1.471489667892e-07
    9.812373594232e-01 3.072812500000e+02 1.333292558244e+00-8.271058808513e-09
   -1.535778257043e-10 1.000000000000e+00 2.036000000000e+03 0.000000000000e+00
    2.400000000000e+00 0.000000000000e+00-1.536682248116e-08 4.400000000000e+01
    3.960060000000e+05 4.000000000000e+00
10 19  1 17 16  0  0.0 1.339581795037e-04-6.593836587854e-12 0.000000000000e+00
    1.020000000000e+02 7.156250000000e+00 4.719482299667e-09-1.271800786350e+00
    3.278255462646e-07 4.227409954183e-03 7.433816790581e-06 5.153658777237e+03
    4.032000000000e+05 3.911554813385e-08 4.387039639296e-01 3.725290298462e-09
    9.624646153145e-01 2.350000000000e+02-2.781877842458e+00-8.053906906122e-09
    5.439512291806e-10 1.000000000000e+00 2.036000000000e+03 0.000000000000e+00
    2.400000000000e+00 0.000000000000e+00 1.862645149231e-09 1.020000000000e+02
    3.960060000000e+05 4.000000000000e+00
12 19  1 17 16  0  0.0 2.755997702479e-04-3.069544618484e-12 0.000000000000e+00
    5.800000000000e+01 9.393750000000e+01 4.203389373754e-09-5.776944047765e-01
    4.906207323074e-06 7.297678268515e-03 3.829598426819e-06 5.153714570999e+03
    4.032000000000e+05-7.078051567078e-08-2.634512267291e+00 1.210719347000e-07
    9.845098252431e-01 3.175625000000e+02 1.025965750540e+00-8.244271978448e-09
    1.375057276655e-10 1.000000000000e+00 2.036000000000e+03 0.000000000000e+00
    2.400000000000e+00 0.000000000000e+00-1.257285475731e-08 5.800000000000e+01
    3.960060000000e+05 4.000000000000e+00
32 19  1 17 16  0  0.0-2.705189399421e-04 1.728039933369e-11 0.000000000000e+00
    3.800000000000e+01-2.418750000000e+01 4.958777981578e-09-2.592240893901e+00
   -1.195818185806e-06 2.472066786140e-03 7.309019565582e-06 5.153739484787e+03
    4.032000000000e+05-2.048909664154e-08 1.480885501602e+00-8.009374141693e-08
    9.563702536656e-01 2.356562500000e+02-2.633943733437e+00-8.144624970607e-09
   -3.482287908412e-10 1.000000000000e+00 2.036000000000e+03 0.000000000000e+00
    2.400000000000e+00 0.000000000000e+00 4.656612873077e-10 3.800000000000e+01
    3.960060000000e+05 4.000000000000e+00
22 19  1 17 16  0  0.0-6.248634308577e-04-8.640199666843e-12 0.000000000000e+00
    9.300000000000e+01 7.656250000000e+00 5.582018227751e-09 2.137491451373e+00
    3.296881914139e-07 7.089004735462e-03 7.366761565208e-06 5.153597332001e+03
    4.032000000000e+05 1.378357410431e-07 3.737466780836e-01-3.539025783539e-08
    9.267875075512e-01 2.212187500000e+02-1.432813233782e+00-8.368205712214e-09
    4.785913638228e-10 1.000000000000e+00 2.036000000000e+03 0.000000000000e+00
    2.400000000000e+00 0.000000000000e+00-1.816079020500e-08 9.300000000000e+01
    3.960060000000e+05 4.000000000000e+00
23 19  1 17 16  0  0.0-2.002352848649e-04 1.136868377216e-12 0.000000000000e+00
    5.600000000000e+01-1.596875000000e+01 5.408439568931e-09 1.500584607864e+00
   -8.083879947662e-07 1.270379347261e-02 7.594004273415e-06 5.153651103973e+03
    4.032000000000e+05-2.756714820862e-07 1.470925193138e+00 1.136213541031e-07
    9.428840419907e-01 2.303125000000e+02-2.307494007313e+00-8.476424505676e-09
   -3.935878230841e-10 1.000000000000e+00 2.036000000000e+03 0.000000000000e+00
    2.400000000000e+00 0.000000000000e+00-2.002343535423e-08 5.600000000000e+01
    3.960060000000e+05 4.000000000000e+00
18 19  1 17 16  0  0.0 1.672469079494e-05 3.751665644813e-12 0.000000000000e+00
    6.300000000000e+01-7.393750000000e+01 4.556261215139e-09 5.249314408158e-01
   -4.032626748085e-06 1.498729293235e-02 1.019425690174e-05 5.153606975555e+03
    4.032000000000e+05-2.216547727585e-07-6.524355799436e-01-6.146728992462e-08
    9.527234461271e-01 1.820625000000e+02 1.368239311471e+00-8.272844597184e-09
    1.100045821324e-10 1.000000000000e+00 2.036000000000e+03 0.000000000000e+00
    2.400000000000e+00 0.000000000000e+00-6.053596735001e-09 6.300000000000e+01
    3.960060000000e+05 4.000000000000e+00
